[{"OBJECT_NAME":"STARLINK-3235","OBJECT_ID":"2021-125AW","EPOCH":"2026-03-09T17:56:50.245728","MEAN_MOTION":15.08839601,"ECCENTRICITY":0.00011819,"INCLINATION":53.2163,"RA_OF_ASC_NODE":238.8203,"ARG_OF_PERICENTER":101.1932,"MEAN_ANOMALY":258.9193,"EPHEMERIS_TYPE":0,"CLASSIFICATION_TYPE":"U","NORAD_CAT_ID":50200,"ELEMENT_SET_NO":999,"REV_AT_EPOCH":23675,"BSTAR":2.536694e-6,"MEAN_MOTION_DOT":-2.47e-6,"MEAN_MOTION_DDOT":0},{"OBJECT_NAME":"THOR ABLESTAR DEB","OBJECT_ID":"1961-015EX","EPOCH":"2026-03-09T22:58:31.837152","MEAN_MOTION":15.04262729,"ECCENTRICITY":0.00191468,"INCLINATION":67.4961,"RA_OF_ASC_NODE":12.7011,"ARG_OF_PERICENTER":32.2919,"MEAN_ANOMALY":327.9391,"EPHEMERIS_TYPE":0,"CLASSIFICATION_TYPE":"U","NORAD_CAT_ID":461,"ELEMENT_SET_NO":999,"REV_AT_EPOCH":37086,"BSTAR":0.0020469071,"MEAN_MOTION_DOT":0.00028661,"MEAN_MOTION_DDOT":0}]
